<?xml version="1.0" encoding="UTF-8"?>
<kml xmlns="http://www.opengis.net/kml/2.2">
<Document>
<Placemark>
<name>BIKF</name>
<Style>
<IconStyle>
<color>ff00ff00</color>
</IconStyle>
</Style>
<Point>
<coordinates>-22.605555555555558,63.984722222222224,0</coordinates>
</Point>
</Placemark>
<Placemark>
<name>CYUL</name>
<Style>
<IconStyle>
<color>ff0000ff</color>
</IconStyle>
</Style>
<Point>
<coordinates>-73.74138888888889,45.46805555555556,0</coordinates>
</Point>
</Placemark>
<Placemark>
<name>CYYZ</name>
<Style>
<IconStyle>
<color>ff0000ff</color>
</IconStyle>
</Style>
<Point>
<coordinates>-79.63027777777778,43.676944444444445,0</coordinates>
</Point>
</Placemark>
<Placemark>
<name>DAAG</name>
<Style>
<IconStyle>
<color>ff0000ff</color>
</IconStyle>
</Style>
<Point>
<coordinates>3.2144444444444447,36.69361111111111,0</coordinates>
</Point>
</Placemark>
<Placemark>
<name>DTTA</name>
<Style>
<IconStyle>
<color>ff0000ff</color>
</IconStyle>
</Style>
<Point>
<coordinates>10.226944444444445,36.850833333333334,0</coordinates>
</Point>
</Placemark>
<Placemark>
<name>EBAW</name>
<Style>
<IconStyle>
<color>ff00ff00</color>
</IconStyle>
</Style>
<Point>
<coordinates>4.460277777777778,51.189166666666665,0</coordinates>
</Point>
</Placemark>
<Placemark>
<name>EBBR</name>
<Style>
<IconStyle>
<color>ff00ff00</color>
</IconStyle>
</Style>
<Point>
<coordinates>4.484444444444445,50.901111111111106,0</coordinates>
</Point>
</Placemark>
<Placemark>
<name>EBLG</name>
<Style>
<IconStyle>
<color>ff00ff00</color>
</IconStyle>
</Style>
<Point>
<coordinates>5.4425,50.63611111111111,0</coordinates>
</Point>
</Placemark>
<Placemark>
<name>EBOS</name>
<Style>
<IconStyle>
<color>ff00ff00</color>
</IconStyle>
</Style>
<Point>
<coordinates>2.8622222222222224,51.198611111111106,0</coordinates>
</Point>
</Placemark>
<Placemark>
<name>EDDB</name>
<Style>
<IconStyle>
<color>ff00ff00</color>
</IconStyle>
</Style>
<Point>
<coordinates>13.500555555555556,52.36194444444445,0</coordinates>
</Point>
</Placemark>
<Placemark>
<name>EDDF</name>
<Style>
<IconStyle>
<color>ff00ff00</color>
</IconStyle>
</Style>
<Point>
<coordinates>8.570555555555556,50.033055555555556,0</coordinates>
</Point>
</Placemark>
<Placemark>
<name>EDDH</name>
<Style>
<IconStyle>
<color>ff00ff00</color>
</IconStyle>
</Style>
<Point>
<coordinates>9.988055555555555,53.63,0</coordinates>
</Point>
</Placemark>
<Placemark>
<name>EDDK</name>
<Style>
<IconStyle>
<color>ff00ff00</color>
</IconStyle>
</Style>
<Point>
<coordinates>7.142777777777778,50.865833333333335,0</coordinates>
</Point>
</Placemark>
<Placemark>
<name>EDDL</name>
<Style>
<IconStyle>
<color>ff00ff00</color>
</IconStyle>
</Style>
<Point>
<coordinates>6.7572222222222225,51.280833333333334,0</coordinates>
</Point>
</Placemark>
<Placemark>
<name>EDDM</name>
<Style>
<IconStyle>
<color>ff00ff00</color>
</IconStyle>
</Style>
<Point>
<coordinates>11.786111111111111,48.35388888888889,0</coordinates>
</Point>
</Placemark>
<Placemark>
<name>EDDN</name>
<Style>
<IconStyle>
<color>ff00ff00</color>
</IconStyle>
</Style>
<Point>
<coordinates>11.077777777777778,49.498333333333335,0</coordinates>
</Point>
</Placemark>
<Placemark>
<name>EDDP</name>
<Style>
<IconStyle>
<color>ff00ff00</color>
</IconStyle>
</Style>
<Point>
<coordinates>12.23611111111111,51.42388888888889,0</coordinates>
</Point>
</Placemark>
<Placemark>
<name>EDDS</name>
<Style>
<IconStyle>
<color>ff00ff00</color>
</IconStyle>
</Style>
<Point>
<coordinates>9.221944444444444,48.689722222222215,0</coordinates>
</Point>
</Placemark>
<Placemark>
<name>EDDT</name>
<Style>
<IconStyle>
<color>ff00ff00</color>
</IconStyle>
</Style>
<Point>
<coordinates>13.287777777777778,52.559444444444445,0</coordinates>
</Point>
</Placemark>
<Placemark>
<name>EDDV</name>
<Style>
<IconStyle>
<color>ff00ff00</color>
</IconStyle>
</Style>
<Point>
<coordinates>9.683333333333334,52.46027777777778,0</coordinates>
</Point>
</Placemark>
<Placemark>
<name>EETN</name>
<Style>
<IconStyle>
<color>ff00ff00</color>
</IconStyle>
</Style>
<Point>
<coordinates>24.83222222222222,59.413333333333334,0</coordinates>
</Point>
</Placemark>
<Placemark>
<name>EFHK</name>
<Style>
<IconStyle>
<color>ff00ff00</color>
</IconStyle>
</Style>
<Point>
<coordinates>24.963055555555556,60.31722222222223,0</coordinates>
</Point>
</Placemark>
<Placemark>
<name>EGAA</name>
<Style>
<IconStyle>
<color>ff0000ff</color>
</IconStyle>
</Style>
<Point>
<coordinates>-6.2155555555555555,54.657222222222224,0</coordinates>
</Point>
</Placemark>
<Placemark>
<name>EGBB</name>
<Style>
<IconStyle>
<color>ff0000ff</color>
</IconStyle>
</Style>
<Point>
<coordinates>-1.7480555555555557,52.45388888888889,0</coordinates>
</Point>
</Placemark>
<Placemark>
<name>EGCC</name>
<Style>
<IconStyle>
<color>ff0000ff</color>
</IconStyle>
</Style>
<Point>
<coordinates>-2.274722222222222,53.35388888888889,0</coordinates>
</Point>
</Placemark>
<Placemark>
<name>EGFF</name>
<Style>
<IconStyle>
<color>ff0000ff</color>
</IconStyle>
</Style>
<Point>
<coordinates>-3.343055555555556,51.39666666666667,0</coordinates>
</Point>
</Placemark>
<Placemark>
<name>EGGD</name>
<Style>
<IconStyle>
<color>ff0000ff</color>
</IconStyle>
</Style>
<Point>
<coordinates>-2.7191666666666667,51.3825,0</coordinates>
</Point>
</Placemark>
<Placemark>
<name>EGGP</name>
<Style>
<IconStyle>
<color>ff0000ff</color>
</IconStyle>
</Style>
<Point>
<coordinates>-2.8497222222222223,53.333333333333336,0</coordinates>
</Point>
</Placemark>
<Placemark>
<name>EGGW</name>
<Style>
<IconStyle>
<color>ff0000ff</color>
</IconStyle>
</Style>
<Point>
<coordinates>-0.3680555555555555,51.874722222222225,0</coordinates>
</Point>
</Placemark>
<Placemark>
<name>EGHI</name>
<Style>
<IconStyle>
<color>ff0000ff</color>
</IconStyle>
</Style>
<Point>
<coordinates>-1.3566666666666667,50.95027777777778,0</coordinates>
</Point>
</Placemark>
<Placemark>
<name>EGKK</name>
<Style>
<IconStyle>
<color>ff0000ff</color>
</IconStyle>
</Style>
<Point>
<coordinates>-0.18999999999999997,51.14805555555556,0</coordinates>
</Point>
</Placemark>
<Placemark>
<name>EGLL</name>
<Style>
<IconStyle>
<color>ff0000ff</color>
</IconStyle>
</Style>
<Point>
<coordinates>-0.4613888888888889,51.477222222222224,0</coordinates>
</Point>
</Placemark>
<Placemark>
<name>EGMC</name>
<Style>
<IconStyle>
<color>ff0000ff</color>
</IconStyle>
</Style>
<Point>
<coordinates>0.6933333333333334,51.57027777777778,0</coordinates>
</Point>
</Placemark>
<Placemark>
<name>EGNM</name>
<Style>
<IconStyle>
<color>ff0000ff</color>
</IconStyle>
</Style>
<Point>
<coordinates>-1.6605555555555556,53.865833333333335,0</coordinates>
</Point>
</Placemark>
<Placemark>
<name>EGNT</name>
<Style>
<IconStyle>
<color>ff0000ff</color>
</IconStyle>
</Style>
<Point>
<coordinates>-1.6897222222222223,55.03777777777778,0</coordinates>
</Point>
</Placemark>
<Placemark>
<name>EGNX</name>
<Style>
<IconStyle>
<color>ff0000ff</color>
</IconStyle>
</Style>
<Point>
<coordinates>-1.3275,52.83111111111111,0</coordinates>
</Point>
</Placemark>
<Placemark>
<name>EGPH</name>
<Style>
<IconStyle>
<color>ff0000ff</color>
</IconStyle>
</Style>
<Point>
<coordinates>-3.3725,55.95,0</coordinates>
</Point>
</Placemark>
<Placemark>
<name>EGPK</name>
<Style>
<IconStyle>
<color>ff0000ff</color>
</IconStyle>
</Style>
<Point>
<coordinates>-4.594166666666666,55.50944444444445,0</coordinates>
</Point>
</Placemark>
<Placemark>
<name>EGSS</name>
<Style>
<IconStyle>
<color>ff0000ff</color>
</IconStyle>
</Style>
<Point>
<coordinates>0.23500000000000001,51.88472222222222,0</coordinates>
</Point>
</Placemark>
<Placemark>
<name>EHAM</name>
<Style>
<IconStyle>
<color>ff00ff00</color>
</IconStyle>
</Style>
<Point>
<coordinates>4.764166666666667,52.30777777777777,0</coordinates>
</Point>
</Placemark>
<Placemark>
<name>EHEH</name>
<Style>
<IconStyle>
<color>ff00ff00</color>
</IconStyle>
</Style>
<Point>
<coordinates>5.3741666666666665,51.45,0</coordinates>
</Point>
</Placemark>
<Placemark>
<name>EHRD</name>
<Style>
<IconStyle>
<color>ff00ff00</color>
</IconStyle>
</Style>
<Point>
<coordinates>4.436944444444444,51.956944444444446,0</coordinates>
</Point>
</Placemark>
<Placemark>
<name>EIDW</name>
<Style>
<IconStyle>
<color>ff0000ff</color>
</IconStyle>
</Style>
<Point>
<coordinates>-6.269722222222222,53.42111111111111,0</coordinates>
</Point>
</Placemark>
<Placemark>
<name>EKBI</name>
<Style>
<IconStyle>
<color>ff00ff00</color>
</IconStyle>
</Style>
<Point>
<coordinates>9.151666666666667,55.74,0</coordinates>
</Point>
</Placemark>
<Placemark>
<name>EKCH</name>
<Style>
<IconStyle>
<color>ff00ff00</color>
</IconStyle>
</Style>
<Point>
<coordinates>12.655833333333334,55.61805555555556,0</coordinates>
</Point>
</Placemark>
<Placemark>
<name>ELLX</name>
<Style>
<IconStyle>
<color>ff00ff00</color>
</IconStyle>
</Style>
<Point>
<coordinates>6.204166666666667,49.623333333333335,0</coordinates>
</Point>
</Placemark>
<Placemark>
<name>ENBR</name>
<Style>
<IconStyle>
<color>ff00ff00</color>
</IconStyle>
</Style>
<Point>
<coordinates>5.218055555555556,60.29361111111111,0</coordinates>
</Point>
</Placemark>
<Placemark>
<name>ENGM</name>
<Style>
<IconStyle>
<color>ff00ff00</color>
</IconStyle>
</Style>
<Point>
<coordinates>11.08388888888889,60.20277777777778,0</coordinates>
</Point>
</Placemark>
<Placemark>
<name>EPKK</name>
<Style>
<IconStyle>
<color>ff00ff00</color>
</IconStyle>
</Style>
<Point>
<coordinates>19.784722222222225,50.07777777777778,0</coordinates>
</Point>
</Placemark>
<Placemark>
<name>EPKT</name>
<Style>
<IconStyle>
<color>ff00ff00</color>
</IconStyle>
</Style>
<Point>
<coordinates>19.079722222222223,50.47416666666667,0</coordinates>
</Point>
</Placemark>
<Placemark>
<name>EPWA</name>
<Style>
<IconStyle>
<color>ff00ff00</color>
</IconStyle>
</Style>
<Point>
<coordinates>20.966944444444444,52.16555555555556,0</coordinates>
</Point>
</Placemark>
<Placemark>
<name>ESGG</name>
<Style>
<IconStyle>
<color>ff00ff00</color>
</IconStyle>
</Style>
<Point>
<coordinates>12.290833333333333,57.65972222222222,0</coordinates>
</Point>
</Placemark>
<Placemark>
<name>ESKN</name>
<Style>
<IconStyle>
<color>ff00ff00</color>
</IconStyle>
</Style>
<Point>
<coordinates>16.90361111111111,58.788333333333334,0</coordinates>
</Point>
</Placemark>
<Placemark>
<name>ESSA</name>
<Style>
<IconStyle>
<color>ff00ff00</color>
</IconStyle>
</Style>
<Point>
<coordinates>17.91861111111111,59.651944444444446,0</coordinates>
</Point>
</Placemark>
<Placemark>
<name>ETNL</name>
<Style>
<IconStyle>
<color>ff0000ff</color>
</IconStyle>
</Style>
<Point>
<coordinates>12.278333333333334,53.91888888888889,0</coordinates>
</Point>
</Placemark>
<Placemark>
<name>EVRA</name>
<Style>
<IconStyle>
<color>ff00ff00</color>
</IconStyle>
</Style>
<Point>
<coordinates>23.97083333333333,56.92333333333333,0</coordinates>
</Point>
</Placemark>
<Placemark>
<name>EYVI</name>
<Style>
<IconStyle>
<color>ff00ff00</color>
</IconStyle>
</Style>
<Point>
<coordinates>25.28777777777778,54.636944444444445,0</coordinates>
</Point>
</Placemark>
<Placemark>
<name>GCFV</name>
<Style>
<IconStyle>
<color>ff0000ff</color>
</IconStyle>
</Style>
<Point>
<coordinates>-13.863888888888889,28.4525,0</coordinates>
</Point>
</Placemark>
<Placemark>
<name>GCLP</name>
<Style>
<IconStyle>
<color>ff0000ff</color>
</IconStyle>
</Style>
<Point>
<coordinates>-15.386666666666667,27.931944444444447,0</coordinates>
</Point>
</Placemark>
<Placemark>
<name>GCRR</name>
<Style>
<IconStyle>
<color>ff0000ff</color>
</IconStyle>
</Style>
<Point>
<coordinates>-13.605,28.94527777777778,0</coordinates>
</Point>
</Placemark>
<Placemark>
<name>GCXO</name>
<Style>
<IconStyle>
<color>ff0000ff</color>
</IconStyle>
</Style>
<Point>
<coordinates>-16.341388888888886,28.482499999999998,0</coordinates>
</Point>
</Placemark>
<Placemark>
<name>GMFF</name>
<Style>
<IconStyle>
<color>ff0000ff</color>
</IconStyle>
</Style>
<Point>
<coordinates>-4.977777777777778,33.926944444444445,0</coordinates>
</Point>
</Placemark>
<Placemark>
<name>GMMN</name>
<Style>
<IconStyle>
<color>ff0000ff</color>
</IconStyle>
</Style>
<Point>
<coordinates>-7.581388888888888,33.36416666666667,0</coordinates>
</Point>
</Placemark>
<Placemark>
<name>GMMX</name>
<Style>
<IconStyle>
<color>ff0000ff</color>
</IconStyle>
</Style>
<Point>
<coordinates>-8.040833333333333,31.608611111111113,0</coordinates>
</Point>
</Placemark>
<Placemark>
<name>GMTT</name>
<Style>
<IconStyle>
<color>ff0000ff</color>
</IconStyle>
</Style>
<Point>
<coordinates>-5.921111111111111,35.73166666666667,0</coordinates>
</Point>
</Placemark>
<Placemark>
<name>HECA</name>
<Style>
<IconStyle>
<color>ff0000ff</color>
</IconStyle>
</Style>
<Point>
<coordinates>31.41361111111111,30.11138888888889,0</coordinates>
</Point>
</Placemark>
<Placemark>
<name>HTDA</name>
<Style>
<IconStyle>
<color>ff0000ff</color>
</IconStyle>
</Style>
<Point>
<coordinates>39.20305555555556,-6.875555555555556,0</coordinates>
</Point>
</Placemark>
<Placemark>
<name>KATL</name>
<Style>
<IconStyle>
<color>ff0000ff</color>
</IconStyle>
</Style>
<Point>
<coordinates>-84.43333333333334,33.63305555555556,0</coordinates>
</Point>
</Placemark>
<Placemark>
<name>KCLT</name>
<Style>
<IconStyle>
<color>ff0000ff</color>
</IconStyle>
</Style>
<Point>
<coordinates>-80.95,35.21666666666667,0</coordinates>
</Point>
</Placemark>
<Placemark>
<name>KEWR</name>
<Style>
<IconStyle>
<color>ff0000ff</color>
</IconStyle>
</Style>
<Point>
<coordinates>-74.16833333333334,40.69638888888888,0</coordinates>
</Point>
</Placemark>
<Placemark>
<name>KIAD</name>
<Style>
<IconStyle>
<color>ff0000ff</color>
</IconStyle>
</Style>
<Point>
<coordinates>-77.4563888888889,38.94472222222222,0</coordinates>
</Point>
</Placemark>
<Placemark>
<name>KJFK</name>
<Style>
<IconStyle>
<color>ff0000ff</color>
</IconStyle>
</Style>
<Point>
<coordinates>-73.77833333333334,40.64,0</coordinates>
</Point>
</Placemark>
<Placemark>
<name>KMIA</name>
<Style>
<IconStyle>
<color>ff0000ff</color>
</IconStyle>
</Style>
<Point>
<coordinates>-80.28305555555555,25.8,0</coordinates>
</Point>
</Placemark>
<Placemark>
<name>KPHL</name>
<Style>
<IconStyle>
<color>ff0000ff</color>
</IconStyle>
</Style>
<Point>
<coordinates>-75.245,39.86972222222222,0</coordinates>
</Point>
</Placemark>
<Placemark>
<name>KUGN</name>
<Style>
<IconStyle>
<color>ff0000ff</color>
</IconStyle>
</Style>
<Point>
<coordinates>-87.86805555555554,42.42166666666667,0</coordinates>
</Point>
</Placemark>
<Placemark>
<name>LBSF</name>
<Style>
<IconStyle>
<color>ff0000ff</color>
</IconStyle>
</Style>
<Point>
<coordinates>23.408055555555553,42.69472222222222,0</coordinates>
</Point>
</Placemark>
<Placemark>
<name>LCLK</name>
<Style>
<IconStyle>
<color>ff00ff00</color>
</IconStyle>
</Style>
<Point>
<coordinates>33.63,34.87861111111111,0</coordinates>
</Point>
</Placemark>
<Placemark>
<name>LDDU</name>
<Style>
<IconStyle>
<color>ff0000ff</color>
</IconStyle>
</Style>
<Point>
<coordinates>18.268055555555556,42.56111111111111,0</coordinates>
</Point>
</Placemark>
<Placemark>
<name>LDSP</name>
<Style>
<IconStyle>
<color>ff0000ff</color>
</IconStyle>
</Style>
<Point>
<coordinates>16.298055555555557,43.53861111111111,0</coordinates>
</Point>
</Placemark>
<Placemark>
<name>LDZA</name>
<Style>
<IconStyle>
<color>ff0000ff</color>
</IconStyle>
</Style>
<Point>
<coordinates>16.06888888888889,45.74305555555556,0</coordinates>
</Point>
</Placemark>
<Placemark>
<name>LEAL</name>
<Style>
<IconStyle>
<color>ff00ff00</color>
</IconStyle>
</Style>
<Point>
<coordinates>-0.5580555555555556,38.282222222222224,0</coordinates>
</Point>
</Placemark>
<Placemark>
<name>LEAM</name>
<Style>
<IconStyle>
<color>ff00ff00</color>
</IconStyle>
</Style>
<Point>
<coordinates>-2.37,36.84388888888889,0</coordinates>
</Point>
</Placemark>
<Placemark>
<name>LEAS</name>
<Style>
<IconStyle>
<color>ff00ff00</color>
</IconStyle>
</Style>
<Point>
<coordinates>-6.034722222222222,43.56333333333333,0</coordinates>
</Point>
</Placemark>
<Placemark>
<name>LEBB</name>
<Style>
<IconStyle>
<color>ff00ff00</color>
</IconStyle>
</Style>
<Point>
<coordinates>-2.9102777777777775,43.30083333333333,0</coordinates>
</Point>
</Placemark>
<Placemark>
<name>LEBL</name>
<Style>
<IconStyle>
<color>ff00ff00</color>
</IconStyle>
</Style>
<Point>
<coordinates>2.0783333333333336,41.29666666666667,0</coordinates>
</Point>
</Placemark>
<Placemark>
<name>LEBZ</name>
<Style>
<IconStyle>
<color>ff00ff00</color>
</IconStyle>
</Style>
<Point>
<coordinates>-6.821111111111111,38.89138888888889,0</coordinates>
</Point>
</Placemark>
<Placemark>
<name>LECO</name>
<Style>
<IconStyle>
<color>ff00ff00</color>
</IconStyle>
</Style>
<Point>
<coordinates>-8.377222222222223,43.301944444444445,0</coordinates>
</Point>
</Placemark>
<Placemark>
<name>LEGE</name>
<Style>
<IconStyle>
<color>ff00ff00</color>
</IconStyle>
</Style>
<Point>
<coordinates>2.7602777777777776,41.900555555555556,0</coordinates>
</Point>
</Placemark>
<Placemark>
<name>LEGR</name>
<Style>
<IconStyle>
<color>ff00ff00</color>
</IconStyle>
</Style>
<Point>
<coordinates>-3.776944444444444,37.18833333333333,0</coordinates>
</Point>
</Placemark>
<Placemark>
<name>LEIB</name>
<Style>
<IconStyle>
<color>ff00ff00</color>
</IconStyle>
</Style>
<Point>
<coordinates>1.3730555555555557,38.8725,0</coordinates>
</Point>
</Placemark>
<Placemark>
<name>LEJR</name>
<Style>
<IconStyle>
<color>ff00ff00</color>
</IconStyle>
</Style>
<Point>
<coordinates>-6.059722222222222,36.74472222222222,0</coordinates>
</Point>
</Placemark>
<Placemark>
<name>LELN</name>
<Style>
<IconStyle>
<color>ff00ff00</color>
</IconStyle>
</Style>
<Point>
<coordinates>-5.6561111111111115,42.58861111111111,0</coordinates>
</Point>
</Placemark>
<Placemark>
<name>LEMD</name>
<Style>
<IconStyle>
<color>ff00ff00</color>
</IconStyle>
</Style>
<Point>
<coordinates>-3.5605555555555553,40.471944444444446,0</coordinates>
</Point>
</Placemark>
<Placemark>
<name>LEMG</name>
<Style>
<IconStyle>
<color>ff00ff00</color>
</IconStyle>
</Style>
<Point>
<coordinates>-4.498888888888889,36.67472222222222,0</coordinates>
</Point>
</Placemark>
<Placemark>
<name>LEMH</name>
<Style>
<IconStyle>
<color>ff00ff00</color>
</IconStyle>
</Style>
<Point>
<coordinates>4.2186111111111115,39.862500000000004,0</coordinates>
</Point>
</Placemark>
<Placemark>
<name>LEPA</name>
<Style>
<IconStyle>
<color>ff00ff00</color>
</IconStyle>
</Style>
<Point>
<coordinates>2.738888888888889,39.55138888888889,0</coordinates>
</Point>
</Placemark>
<Placemark>
<name>LESO</name>
<Style>
<IconStyle>
<color>ff00ff00</color>
</IconStyle>
</Style>
<Point>
<coordinates>-1.7902777777777776,43.35611111111111,0</coordinates>
</Point>
</Placemark>
<Placemark>
<name>LEST</name>
<Style>
<IconStyle>
<color>ff00ff00</color>
</IconStyle>
</Style>
<Point>
<coordinates>-8.415277777777778,42.89611111111111,0</coordinates>
</Point>
</Placemark>
<Placemark>
<name>LEVC</name>
<Style>
<IconStyle>
<color>ff00ff00</color>
</IconStyle>
</Style>
<Point>
<coordinates>-0.4816666666666667,39.489444444444445,0</coordinates>
</Point>
</Placemark>
<Placemark>
<name>LEVD</name>
<Style>
<IconStyle>
<color>ff00ff00</color>
</IconStyle>
</Style>
<Point>
<coordinates>-4.851666666666667,41.70611111111111,0</coordinates>
</Point>
</Placemark>
<Placemark>
<name>LEVX</name>
<Style>
<IconStyle>
<color>ff00ff00</color>
</IconStyle>
</Style>
<Point>
<coordinates>-8.627500000000001,42.22916666666667,0</coordinates>
</Point>
</Placemark>
<Placemark>
<name>LEXJ</name>
<Style>
<IconStyle>
<color>ff00ff00</color>
</IconStyle>
</Style>
<Point>
<coordinates>-3.819722222222222,43.426944444444445,0</coordinates>
</Point>
</Placemark>
<Placemark>
<name>LEZL</name>
<Style>
<IconStyle>
<color>ff00ff00</color>
</IconStyle>
</Style>
<Point>
<coordinates>-5.89861111111111,37.41777777777777,0</coordinates>
</Point>
</Placemark>
<Placemark>
<name>LFBD</name>
<Style>
<IconStyle>
<color>ff00ff00</color>
</IconStyle>
</Style>
<Point>
<coordinates>-0.715,44.828611111111115,0</coordinates>
</Point>
</Placemark>
<Placemark>
<name>LFBT</name>
<Style>
<IconStyle>
<color>ff00ff00</color>
</IconStyle>
</Style>
<Point>
<coordinates>-0.002777777777777778,43.18527777777778,0</coordinates>
</Point>
</Placemark>
<Placemark>
<name>LFCK</name>
<Style>
<IconStyle>
<color>ff00ff00</color>
</IconStyle>
</Style>
<Point>
<coordinates>2.290277777777778,43.55472222222222,0</coordinates>
</Point>
</Placemark>
<Placemark>
<name>LFLL</name>
<Style>
<IconStyle>
<color>ff00ff00</color>
</IconStyle>
</Style>
<Point>
<coordinates>5.0808333333333335,45.72555555555556,0</coordinates>
</Point>
</Placemark>
<Placemark>
<name>LFMD</name>
<Style>
<IconStyle>
<color>ff00ff00</color>
</IconStyle>
</Style>
<Point>
<coordinates>6.954166666666667,43.54611111111111,0</coordinates>
</Point>
</Placemark>
<Placemark>
<name>LFML</name>
<Style>
<IconStyle>
<color>ff00ff00</color>
</IconStyle>
</Style>
<Point>
<coordinates>5.214722222222222,43.436388888888885,0</coordinates>
</Point>
</Placemark>
<Placemark>
<name>LFMN</name>
<Style>
<IconStyle>
<color>ff00ff00</color>
</IconStyle>
</Style>
<Point>
<coordinates>7.214722222222222,43.665,0</coordinates>
</Point>
</Placemark>
<Placemark>
<name>LFOB</name>
<Style>
<IconStyle>
<color>ff00ff00</color>
</IconStyle>
</Style>
<Point>
<coordinates>2.112777777777778,49.45444444444445,0</coordinates>
</Point>
</Placemark>
<Placemark>
<name>LFPG</name>
<Style>
<IconStyle>
<color>ff00ff00</color>
</IconStyle>
</Style>
<Point>
<coordinates>2.5475,49.00972222222222,0</coordinates>
</Point>
</Placemark>
<Placemark>
<name>LFPO</name>
<Style>
<IconStyle>
<color>ff00ff00</color>
</IconStyle>
</Style>
<Point>
<coordinates>2.3794444444444447,48.723333333333336,0</coordinates>
</Point>
</Placemark>
<Placemark>
<name>LFQQ</name>
<Style>
<IconStyle>
<color>ff00ff00</color>
</IconStyle>
</Style>
<Point>
<coordinates>3.0869444444444447,50.56305555555555,0</coordinates>
</Point>
</Placemark>
<Placemark>
<name>LFRN</name>
<Style>
<IconStyle>
<color>ff00ff00</color>
</IconStyle>
</Style>
<Point>
<coordinates>-1.7322222222222223,48.07194444444445,0</coordinates>
</Point>
</Placemark>
<Placemark>
<name>LFRS</name>
<Style>
<IconStyle>
<color>ff00ff00</color>
</IconStyle>
</Style>
<Point>
<coordinates>-1.607777777777778,47.156666666666666,0</coordinates>
</Point>
</Placemark>
<Placemark>
<name>LFSB</name>
<Style>
<IconStyle>
<color>ff00ff00</color>
</IconStyle>
</Style>
<Point>
<coordinates>7.529166666666667,47.59,0</coordinates>
</Point>
</Placemark>
<Placemark>
<name>LFST</name>
<Style>
<IconStyle>
<color>ff00ff00</color>
</IconStyle>
</Style>
<Point>
<coordinates>7.634166666666666,48.541666666666664,0</coordinates>
</Point>
</Placemark>
<Placemark>
<name>LGAV</name>
<Style>
<IconStyle>
<color>ff00ff00</color>
</IconStyle>
</Style>
<Point>
<coordinates>23.944444444444446,37.936388888888885,0</coordinates>
</Point>
</Placemark>
<Placemark>
<name>LGIR</name>
<Style>
<IconStyle>
<color>ff00ff00</color>
</IconStyle>
</Style>
<Point>
<coordinates>25.18027777777778,35.339444444444446,0</coordinates>
</Point>
</Placemark>
<Placemark>
<name>LGKR</name>
<Style>
<IconStyle>
<color>ff00ff00</color>
</IconStyle>
</Style>
<Point>
<coordinates>19.911944444444444,39.60194444444445,0</coordinates>
</Point>
</Placemark>
<Placemark>
<name>LGMK</name>
<Style>
<IconStyle>
<color>ff00ff00</color>
</IconStyle>
</Style>
<Point>
<coordinates>25.346944444444443,37.43694444444444,0</coordinates>
</Point>
</Placemark>
<Placemark>
<name>LGSR</name>
<Style>
<IconStyle>
<color>ff00ff00</color>
</IconStyle>
</Style>
<Point>
<coordinates>25.478888888888886,36.39888888888889,0</coordinates>
</Point>
</Placemark>
<Placemark>
<name>LGTS</name>
<Style>
<IconStyle>
<color>ff00ff00</color>
</IconStyle>
</Style>
<Point>
<coordinates>22.970555555555553,40.519444444444446,0</coordinates>
</Point>
</Placemark>
<Placemark>
<name>LHBP</name>
<Style>
<IconStyle>
<color>ff00ff00</color>
</IconStyle>
</Style>
<Point>
<coordinates>19.261944444444445,47.439166666666665,0</coordinates>
</Point>
</Placemark>
<Placemark>
<name>LIBD</name>
<Style>
<IconStyle>
<color>ff00ff00</color>
</IconStyle>
</Style>
<Point>
<coordinates>16.765,41.13777777777778,0</coordinates>
</Point>
</Placemark>
<Placemark>
<name>LICJ</name>
<Style>
<IconStyle>
<color>ff00ff00</color>
</IconStyle>
</Style>
<Point>
<coordinates>13.099444444444446,38.181666666666665,0</coordinates>
</Point>
</Placemark>
<Placemark>
<name>LIEE</name>
<Style>
<IconStyle>
<color>ff00ff00</color>
</IconStyle>
</Style>
<Point>
<coordinates>9.055833333333334,39.246944444444445,0</coordinates>
</Point>
</Placemark>
<Placemark>
<name>LIEO</name>
<Style>
<IconStyle>
<color>ff00ff00</color>
</IconStyle>
</Style>
<Point>
<coordinates>9.517777777777779,40.89833333333333,0</coordinates>
</Point>
</Placemark>
<Placemark>
<name>LIMC</name>
<Style>
<IconStyle>
<color>ff00ff00</color>
</IconStyle>
</Style>
<Point>
<coordinates>8.723055555555556,45.63,0</coordinates>
</Point>
</Placemark>
<Placemark>
<name>LIME</name>
<Style>
<IconStyle>
<color>ff00ff00</color>
</IconStyle>
</Style>
<Point>
<coordinates>9.7,45.66861111111111,0</coordinates>
</Point>
</Placemark>
<Placemark>
<name>LIMF</name>
<Style>
<IconStyle>
<color>ff00ff00</color>
</IconStyle>
</Style>
<Point>
<coordinates>7.649166666666666,45.2025,0</coordinates>
</Point>
</Placemark>
<Placemark>
<name>LIML</name>
<Style>
<IconStyle>
<color>ff00ff00</color>
</IconStyle>
</Style>
<Point>
<coordinates>9.278333333333334,45.44916666666666,0</coordinates>
</Point>
</Placemark>
<Placemark>
<name>LIPE</name>
<Style>
<IconStyle>
<color>ff00ff00</color>
</IconStyle>
</Style>
<Point>
<coordinates>11.296666666666667,44.530833333333334,0</coordinates>
</Point>
</Placemark>
<Placemark>
<name>LIPH</name>
<Style>
<IconStyle>
<color>ff00ff00</color>
</IconStyle>
</Style>
<Point>
<coordinates>12.197777777777778,45.650555555555556,0</coordinates>
</Point>
</Placemark>
<Placemark>
<name>LIPX</name>
<Style>
<IconStyle>
<color>ff00ff00</color>
</IconStyle>
</Style>
<Point>
<coordinates>10.887777777777778,45.39611111111111,0</coordinates>
</Point>
</Placemark>
<Placemark>
<name>LIPZ</name>
<Style>
<IconStyle>
<color>ff00ff00</color>
</IconStyle>
</Style>
<Point>
<coordinates>12.351666666666667,45.505,0</coordinates>
</Point>
</Placemark>
<Placemark>
<name>LIRF</name>
<Style>
<IconStyle>
<color>ff00ff00</color>
</IconStyle>
</Style>
<Point>
<coordinates>12.238888888888889,41.8,0</coordinates>
</Point>
</Placemark>
<Placemark>
<name>LIRN</name>
<Style>
<IconStyle>
<color>ff00ff00</color>
</IconStyle>
</Style>
<Point>
<coordinates>14.290833333333333,40.884166666666665,0</coordinates>
</Point>
</Placemark>
<Placemark>
<name>LIRP</name>
<Style>
<IconStyle>
<color>ff00ff00</color>
</IconStyle>
</Style>
<Point>
<coordinates>10.395277777777777,43.6825,0</coordinates>
</Point>
</Placemark>
<Placemark>
<name>LIRQ</name>
<Style>
<IconStyle>
<color>ff00ff00</color>
</IconStyle>
</Style>
<Point>
<coordinates>11.202499999999999,43.80833333333333,0</coordinates>
</Point>
</Placemark>
<Placemark>
<name>LKPR</name>
<Style>
<IconStyle>
<color>ff00ff00</color>
</IconStyle>
</Style>
<Point>
<coordinates>14.259722222222223,50.100833333333334,0</coordinates>
</Point>
</Placemark>
<Placemark>
<name>LLBG</name>
<Style>
<IconStyle>
<color>ff0000ff</color>
</IconStyle>
</Style>
<Point>
<coordinates>34.88527777777778,32.00944444444445,0</coordinates>
</Point>
</Placemark>
<Placemark>
<name>LMML</name>
<Style>
<IconStyle>
<color>ff00ff00</color>
</IconStyle>
</Style>
<Point>
<coordinates>14.477500000000001,35.8575,0</coordinates>
</Point>
</Placemark>
<Placemark>
<name>LOWW</name>
<Style>
<IconStyle>
<color>ff00ff00</color>
</IconStyle>
</Style>
<Point>
<coordinates>16.569444444444443,48.11027777777778,0</coordinates>
</Point>
</Placemark>
<Placemark>
<name>LPPR</name>
<Style>
<IconStyle>
<color>ff00ff00</color>
</IconStyle>
</Style>
<Point>
<coordinates>-8.677777777777777,41.23555555555556,0</coordinates>
</Point>
</Placemark>
<Placemark>
<name>LPPT</name>
<Style>
<IconStyle>
<color>ff00ff00</color>
</IconStyle>
</Style>
<Point>
<coordinates>-9.133888888888889,38.77388888888889,0</coordinates>
</Point>
</Placemark>
<Placemark>
<name>LRCL</name>
<Style>
<IconStyle>
<color>ff0000ff</color>
</IconStyle>
</Style>
<Point>
<coordinates>23.692222222222224,46.788888888888884,0</coordinates>
</Point>
</Placemark>
<Placemark>
<name>LROP</name>
<Style>
<IconStyle>
<color>ff0000ff</color>
</IconStyle>
</Style>
<Point>
<coordinates>26.084722222222222,44.571111111111115,0</coordinates>
</Point>
</Placemark>
<Placemark>
<name>LSGG</name>
<Style>
<IconStyle>
<color>ff00ff00</color>
</IconStyle>
</Style>
<Point>
<coordinates>6.109166666666666,46.23833333333334,0</coordinates>
</Point>
</Placemark>
<Placemark>
<name>LSZG</name>
<Style>
<IconStyle>
<color>ff00ff00</color>
</IconStyle>
</Style>
<Point>
<coordinates>7.416388888888889,47.18138888888889,0</coordinates>
</Point>
</Placemark>
<Placemark>
<name>LSZH</name>
<Style>
<IconStyle>
<color>ff00ff00</color>
</IconStyle>
</Style>
<Point>
<coordinates>8.547777777777778,47.45805555555556,0</coordinates>
</Point>
</Placemark>
<Placemark>
<name>LTBA</name>
<Style>
<IconStyle>
<color>ff0000ff</color>
</IconStyle>
</Style>
<Point>
<coordinates>28.81416666666667,40.976111111111116,0</coordinates>
</Point>
</Placemark>
<Placemark>
<name>LTFJ</name>
<Style>
<IconStyle>
<color>ff0000ff</color>
</IconStyle>
</Style>
<Point>
<coordinates>29.30888888888889,40.89833333333333,0</coordinates>
</Point>
</Placemark>
<Placemark>
<name>LUKK</name>
<Style>
<IconStyle>
<color>ff0000ff</color>
</IconStyle>
</Style>
<Point>
<coordinates>28.930833333333336,46.927499999999995,0</coordinates>
</Point>
</Placemark>
<Placemark>
<name>LWSK</name>
<Style>
<IconStyle>
<color>ff0000ff</color>
</IconStyle>
</Style>
<Point>
<coordinates>21.62138888888889,41.96138888888889,0</coordinates>
</Point>
</Placemark>
<Placemark>
<name>LYBE</name>
<Style>
<IconStyle>
<color>ff0000ff</color>
</IconStyle>
</Style>
<Point>
<coordinates>20.30666666666667,44.81944444444445,0</coordinates>
</Point>
</Placemark>
<Placemark>
<name>LYTV</name>
<Style>
<IconStyle>
<color>ff0000ff</color>
</IconStyle>
</Style>
<Point>
<coordinates>18.723055555555554,42.404444444444444,0</coordinates>
</Point>
</Placemark>
<Placemark>
<name>OLBA</name>
<Style>
<IconStyle>
<color>ff0000ff</color>
</IconStyle>
</Style>
<Point>
<coordinates>35.49,33.81916666666667,0</coordinates>
</Point>
</Placemark>
<Placemark>
<name>OMAA</name>
<Style>
<IconStyle>
<color>ff0000ff</color>
</IconStyle>
</Style>
<Point>
<coordinates>54.64972222222222,24.433333333333334,0</coordinates>
</Point>
</Placemark>
<Placemark>
<name>OMDB</name>
<Style>
<IconStyle>
<color>ff0000ff</color>
</IconStyle>
</Style>
<Point>
<coordinates>55.359722222222224,25.249166666666667,0</coordinates>
</Point>
</Placemark>
<Placemark>
<name>OTHH</name>
<Style>
<IconStyle>
<color>ff0000ff</color>
</IconStyle>
</Style>
<Point>
<coordinates>51.608333333333334,25.274444444444445,0</coordinates>
</Point>
</Placemark>
<Placemark>
<name>SAEZ</name>
<Style>
<IconStyle>
<color>ff0000ff</color>
</IconStyle>
</Style>
<Point>
<coordinates>-58.535555555555554,-34.82222222222222,0</coordinates>
</Point>
</Placemark>
<Placemark>
<name>SBGR</name>
<Style>
<IconStyle>
<color>ff0000ff</color>
</IconStyle>
</Style>
<Point>
<coordinates>-46.469722222222224,-23.433333333333334,0</coordinates>
</Point>
</Placemark>
<Placemark>
<name>SKBO</name>
<Style>
<IconStyle>
<color>ff0000ff</color>
</IconStyle>
</Style>
<Point>
<coordinates>-74.15,4.7,0</coordinates>
</Point>
</Placemark>
<Placemark>
<name>UKBB</name>
<Style>
<IconStyle>
<color>ff0000ff</color>
</IconStyle>
</Style>
<Point>
<coordinates>30.893333333333334,50.344722222222224,0</coordinates>
</Point>
</Placemark>
<Placemark>
<name>UKKK</name>
<Style>
<IconStyle>
<color>ff0000ff</color>
</IconStyle>
</Style>
<Point>
<coordinates>30.451666666666664,50.401944444444446,0</coordinates>
</Point>
</Placemark>
<Placemark>
<name>ULLI</name>
<Style>
<IconStyle>
<color>ff0000ff</color>
</IconStyle>
</Style>
<Point>
<coordinates>30.26222222222222,59.8,0</coordinates>
</Point>
</Placemark>
<Placemark>
<name>URKK</name>
<Style>
<IconStyle>
<color>ff0000ff</color>
</IconStyle>
</Style>
<Point>
<coordinates>39.16972222222222,45.03444444444444,0</coordinates>
</Point>
</Placemark>
<Placemark>
<name>UUDD</name>
<Style>
<IconStyle>
<color>ff0000ff</color>
</IconStyle>
</Style>
<Point>
<coordinates>37.90611111111111,55.40833333333333,0</coordinates>
</Point>
</Placemark>
<Placemark>
<name>UUEE</name>
<Style>
<IconStyle>
<color>ff0000ff</color>
</IconStyle>
</Style>
<Point>
<coordinates>37.41277777777778,55.972500000000004,0</coordinates>
</Point>
</Placemark>
<Placemark>
<name>UWKD</name>
<Style>
<IconStyle>
<color>ff0000ff</color>
</IconStyle>
</Style>
<Point>
<coordinates>49.28,55.60666666666667,0</coordinates>
</Point>
</Placemark>
<Placemark>
<name>WSSS</name>
<Style>
<IconStyle>
<color>ff0000ff</color>
</IconStyle>
</Style>
<Point>
<coordinates>103.9888888888889,1.3591666666666669,0</coordinates>
</Point>
</Placemark>
</Document>
</kml>
